[Satellite]
VERSION=1.1
NAME=HOT BIRD 9
NICKNAME=HOT BIRD 9
TLE1=1 33459U 08065A   17186.17696036  .00000082  00000-0  00000-0 0  9994
TLE2=2 33459   0.0609  54.5374 0006039  44.8947 260.6290  1.00270179 14594
